NORAD_CAT_ID,OBJECT_NAME,OBJECT_TYPE,EPOCH,MEAN_MOTION,ECCENTRICITY,INCLINATION,RA_OF_ASC_NODE,ARG_OF_PERICENTER,MEAN_ANOMALY,BSTAR,MEAN_MOTION_DOT,MEAN_MOTION_DDOT,TLE_LINE0,TLE_LINE1,TLE_LINE2,SEMIMAJOR_AXIS,PERIOD,APOGEE,PERIGEE,DECAYED
52092.0,STARLINK-3716,PAYLOAD,2022-10-31 20:08:22,15.08835714,0.0001886999999999,53.2173,187.6899,45.2332,314.8813,1.878e-06,-2.58e-06,0.0,0 STARLINK-3716,1 52092U 22029E   22304.83914639 -.00000258  00000-0  18780-5 0  9992,2 52092  53.2173 187.6899 0001887  45.2332 314.8813 15.08835714 35741,6917.893,95.438,541.064,538.453,0.0
52092.0,STARLINK-3716,PAYLOAD,2022-11-01 02:29:55,15.08831254,0.0001891,53.2172,186.5005,44.6857,315.4287,-3.7851e-05,-8.900000000000001e-06,0.0,0 STARLINK-3716,1 52092U 22029E   22305.10411132 -.00000890  00000-0 -37851-4 0  9995,2 52092  53.2172 186.5005 0001891  44.6857 315.4287 15.08831254 35788,6917.906999999997,95.438,541.08,538.464,0.0
52092.0,STARLINK-3716,PAYLOAD,2022-11-01 16:48:23,15.08831809,0.0001911,53.2171,183.8243,45.924,314.1909,9.1454e-05,1.167e-05,0.0,0 STARLINK-3716,1 52092U 22029E   22305.70027176  .00001167  00000-0  91454-4 0  9997,2 52092  53.2171 183.8243 0001911  45.9240 314.1909 15.08831809 35877,6917.905,95.438,541.092,538.448,0.0
52092.0,STARLINK-3716,PAYLOAD,2022-11-02 02:20:42,15.08829826,0.0001942,53.217,182.0402,46.0176,314.0976,0.00011247,1.502e-05,0.0,0 STARLINK-3716,1 52092U 22029E   22306.09771555  .00001502  00000-0  11247-3 0  9991,2 52092  53.2170 182.0402 0001942  46.0176 314.0976 15.08829826 35934,6917.911,95.438,541.12,538.433,0.0
52092.0,STARLINK-3716,PAYLOAD,2022-11-02 08:42:14,15.0883583,0.0001950999999999,53.217,180.8508,45.6288,314.4864,9.8433e-05,1.279e-05,0.0,0 STARLINK-3716,1 52092U 22029E   22306.36267331  .00001279  00000-0  98433-4 0  9997,2 52092  53.2170 180.8508 0001951  45.6288 314.4864 15.08835830 35972,6917.893,95.438,541.1080000000002,538.408,0.0
52092.0,STARLINK-3716,PAYLOAD,2022-11-03 00:36:07,15.08821893,0.0001974,53.217,177.8772,45.0524,315.0628,4.4208e-05,4.15e-06,0.0,0 STARLINK-3716,1 52092U 22029E   22307.02508843  .00000415  00000-0  44208-4 0  9999,2 52092  53.2170 177.8772 0001974  45.0524 315.0628 15.08821893 36074,6917.936,95.439,541.1659999999998,538.435,0.0
52092.0,STARLINK-3716,PAYLOAD,2022-11-04 00:26:52,15.08853185,0.0001601,53.2165,173.4188,49.9793,310.1339,0.00023942,3.526e-05,0.0,0 STARLINK-3716,1 52092U 22029E   22308.01866759  .00003526  00000-0  23942-3 0  9999,2 52092  53.2165 173.4188 0001601  49.9793 310.1339 15.08853185 36220,6917.84,95.437,540.813,538.5980000000002,0.0
52092.0,STARLINK-3716,PAYLOAD,2022-11-04 08:23:48,15.08850184,0.0001967,53.2174,171.9305,46.8478,313.2679,0.00042474,6.48e-05,0.0,0 STARLINK-3716,1 52092U 22029E   22308.34986602  .00006480  00000-0  42474-3 0  9998,2 52092  53.2174 171.9305 0001967  46.8478 313.2679 15.08850184 36277,6917.849,95.437,541.075,538.354,0.0
52092.0,STARLINK-3716,PAYLOAD,2022-11-04 17:56:07,15.0884696,0.0001935,53.2162,170.1469,44.3586,315.7561,0.00026076,3.865e-05,0.0,0 STARLINK-3716,1 52092U 22029E   22308.74731312  .00003865  00000-0  26076-3 0  9992,2 52092  53.2162 170.1469 0001935  44.3586 315.7561 15.08846960 36335,6917.859,95.437,541.063,538.386,0.0
52092.0,STARLINK-3716,PAYLOAD,2022-11-04 21:06:54,15.08844433,0.000192,53.2162,169.5515,43.3424,316.7719,0.00020893,3.039e-05,0.0,0 STARLINK-3716,1 52092U 22029E   22308.87979430  .00003039  00000-0  20893-3 0  9995,2 52092  53.2162 169.5515 0001920  43.3424 316.7719 15.08844433 36354,6917.8669999999975,95.437,541.06,538.404,0.0
52092.0,STARLINK-3716,PAYLOAD,2022-11-05 01:53:04,15.08838185,0.0002935,53.2162,168.6598,40.2283,319.8926,0.00036532,5.53e-05,0.0,0 STARLINK-3716,1 52092U 22029E   22309.07851990  .00005530  00000-0  36532-3 0  9993,2 52092  53.2162 168.6598 0002935  40.2283 319.8926 15.08838185 36385,6917.886,95.438,541.781,537.721,0.0
52092.0,STARLINK-3716,PAYLOAD,2022-11-05 17:46:53,15.08913385,0.0002221,53.2191,165.6808,25.4668,334.6433,-0.0026102,-0.00041674,0.0,0 STARLINK-3716,1 52092U 22029E   22309.74089424 -.00041674  00000-0 -26102-2 0  9994,2 52092  53.2191 165.6808 0002221  25.4668 334.6433 15.08913385 36483,6917.656,95.433,541.058,537.985,0.0
52092.0,STARLINK-3716,PAYLOAD,2022-11-06 04:54:38,15.08836979,0.0001751999999999,53.2173,163.6045,40.2499,319.8623,-0.00013188,-2.386e-05,0.0,0 STARLINK-3716,1 52092U 22029E   22310.20461009 -.00002386  00000-0 -13188-3 0  9998,2 52092  53.2173 163.6045 0001752  40.2499 319.8623 15.08836979 36556,6917.89,95.438,540.967,538.543,0.0
52092.0,STARLINK-3716,PAYLOAD,2022-11-06 08:05:24,15.08834461,0.0002074,53.2162,163.0095,49.1907,310.9265,-0.00015032,-2.679e-05,0.0,0 STARLINK-3716,1 52092U 22029E   22310.33709323 -.00002679  00000-0 -15032-3 0  9991,2 52092  53.2162 163.0095 0002074  49.1907 310.9265 15.08834461 36573,6917.897,95.438,541.197,538.328,0.0
52092.0,STARLINK-3716,PAYLOAD,2022-11-07 20:39:17,15.08845024,0.0001927,53.2159,156.1701,40.9558,319.1579,0.00030385,4.552e-05,0.0,0 STARLINK-3716,1 52092U 22029E   22311.86061456  .00004552  00000-0  30385-3 0  9996,2 52092  53.2159 156.1701 0001927  40.9558 319.1579 15.08845024 36805,6917.865,95.437,541.063,538.3969999999998,0.0
52092.0,STARLINK-3716,PAYLOAD,2022-11-08 06:11:35,15.08847482,0.000193,53.2157,154.3859,41.9715,318.1425,0.00020357,2.954e-05,0.0,0 STARLINK-3716,1 52092U 22029E   22312.25805181  .00002954  00000-0  20357-3 0  9993,2 52092  53.2157 154.3859 0001930  41.9715 318.1425 15.08847482 36862,6917.858,95.437,541.058,538.387,0.0
52092.0,STARLINK-3716,PAYLOAD,2022-11-09 20:20:50,15.08845044,0.0001995,53.2136,147.2472,41.452,318.6623,-1.825900000000001e-05,-5.79e-06,0.0,0 STARLINK-3716,1 52092U 22029E   22313.84780235 -.00000579  00000-0 -18259-4 0  9993,2 52092  53.2136 147.2472 0001995  41.4520 318.6623 15.08845044 37106,6917.865,95.437,541.11,538.35,0.0
52092.0,STARLINK-3716,PAYLOAD,2022-11-10 05:53:09,15.08835745,0.0002001,53.2156,145.4644,45.6079,314.5077,-0.00017648,-3.096e-05,0.0,0 STARLINK-3716,1 52092U 22029E   22314.24524582 -.00003096  00000-0 -17648-3 0  9996,2 52092  53.2156 145.4644 0002001  45.6079 314.5077 15.08835745 37164,6917.893,95.438,541.143,538.374,0.0
52092.0,STARLINK-3716,PAYLOAD,2022-11-10 18:36:14,15.08837934,0.0002081,53.2169,143.086,47.1787,312.938,3.6948e-05,3e-06,0.0,0 STARLINK-3716,1 52092U 22029E   22314.77517070  .00000300  00000-0  36948-4 0  9996,2 52092  53.2169 143.0860 0002081  47.1787 312.9380 15.08837934 37243,6917.887,95.438,541.191,538.312,0.0
52092.0,STARLINK-3716,PAYLOAD,2022-11-10 20:11:37,15.08838186,0.000209,53.2169,142.7886,47.5417,312.5751,3.3886e-05,2.51e-06,0.0,0 STARLINK-3716,1 52092U 22029E   22314.84141063  .00000251  00000-0  33886-4 0  9992,2 52092  53.2169 142.7886 0002090  47.5417 312.5751 15.08838186 37250,6917.886,95.438,541.197,538.305,0.0
52092.0,STARLINK-3716,PAYLOAD,2022-11-11 05:43:56,15.08840028,0.0002095,53.2169,141.0043,48.9842,311.1331,3.4001e-05,2.53e-06,0.0,0 STARLINK-3716,1 52092U 22029E   22315.23884905  .00000253  00000-0  34001-4 0  9997,2 52092  53.2169 141.0043 0002095  48.9842 311.1331 15.08840028 37313,6917.88,95.438,541.195,538.2959999999998,0.0
52092.0,STARLINK-3716,PAYLOAD,2022-11-11 20:02:24,15.08839207,0.0002172,53.217,138.3277,51.2332,308.8854,0.00015898,2.243e-05,0.0,0 STARLINK-3716,1 52092U 22029E   22315.83500635  .00002243  00000-0  15898-3 0  9991,2 52092  53.2170 138.3277 0002172  51.2332 308.8854 15.08839207 37400,6917.8830000000025,95.438,541.25,538.245,0.0
52092.0,STARLINK-3716,PAYLOAD,2022-11-12 11:56:15,15.08843135,0.0002174,53.2169,135.35399999999998,52.9825,307.1366,0.00017514,2.5e-05,0.0,0 STARLINK-3716,1 52092U 22029E   22316.49740517  .00002500  00000-0  17514-3 0  9992,2 52092  53.2169 135.3540 0002174  52.9825 307.1366 15.08843135 37501,6917.871,95.437,541.24,538.232,0.0
52092.0,STARLINK-3716,PAYLOAD,2022-11-12 18:17:48,15.08837587,0.0002195,53.217,134.1644,53.3936,306.7258,9.8512e-05,1.28e-05,0.0,0 STARLINK-3716,1 52092U 22029E   22316.76237050  .00001280  00000-0  98512-4 0  9997,2 52092  53.2170 134.1644 0002195  53.3936 306.7258 15.08837587 37549,6917.888000000001,95.438,541.271,538.234,0.0
52092.0,STARLINK-3716,PAYLOAD,2022-11-12 21:28:35,15.08837849,0.0002181,53.217,133.5697,53.0895,307.0297,5.933e-05,6.56e-06,0.0,0 STARLINK-3716,1 52092U 22029E   22316.89485061  .00000656  00000-0  59330-4 0  9999,2 52092  53.2170 133.5697 0002181  53.0895 307.0297 15.08837849 37566,6917.887,95.438,541.261,538.243,0.0
52092.0,STARLINK-3716,PAYLOAD,2022-11-13 05:25:30,15.08840962,0.0002187,53.217,132.0828,53.4326,306.6868,7.5887e-05,9.2e-06,0.0,0 STARLINK-3716,1 52092U 22029E   22317.22604840  .00000920  00000-0  75887-4 0  9994,2 52092  53.2170 132.0828 0002187  53.4326 306.6868 15.08840962 37610,6917.877,95.437,541.255,538.23,0.0
52092.0,STARLINK-3716,PAYLOAD,2022-11-13 18:08:35,15.08846607,0.0002202,53.2169,129.7037,53.7969,306.3227,9.3021e-05,1.193e-05,0.0,0 STARLINK-3716,1 52092U 22029E   22317.75596275  .00001193  00000-0  93021-4 0  9997,2 52092  53.2169 129.7037 0002202  53.7969 306.3227 15.08846607 37693,6917.86,95.437,541.249,538.202,0.0
52092.0,STARLINK-3716,PAYLOAD,2022-11-14 11:37:50,15.08836077,0.0002185,53.2167,126.4324,53.4669,306.6524,-6.3273e-05,-1.295e-05,0.0,0 STARLINK-3716,1 52092U 22029E   22318.48461307 -.00001295  00000-0 -63273-4 0  9996,2 52092  53.2167 126.4324 0002185  53.4669 306.6524 15.08836077 37804,6917.892,95.438,541.269,538.246,0.0
52092.0,STARLINK-3716,PAYLOAD,2022-11-14 17:59:22,15.08836755,0.0002199,53.2167,125.2429,52.7856,307.3336,2.9178e-05,1.76e-06,0.0,0 STARLINK-3716,1 52092U 22029E   22318.74957101  .00000176  00000-0  29178-4 0  9998,2 52092  53.2167 125.2429 0002199  52.7856 307.3336 15.08836755 37848,6917.89,95.438,541.2769999999998,538.234,0.0
